[{"name": "Belathur", "pincode": "560067"}, {"name": "Gottigere", "pincode": "560083"}, {"name": "Science Institute", "pincode": "560012"}, {"name": "Vasanthnagar", "pincode": "560052"}, {"name": "Cubban Road", "pincode": "560002"}, {"name": "Jayangar III Block", "pincode": "560011"}, {"name": "Chikkabanavara", "pincode": "560090"}, {"name": "Dasarahalli", "pincode": "560057"}, {"name": "Herohalli", "pincode": "560091"}, {"name": "Yelahanka New Town", "pincode": "560106"}, {"name": "C.V.Raman Nagar", "pincode": "560093"}, {"name": "Jalahalli East", "pincode": "560014"}, {"name": "MSR Road", "pincode": "560054"}, {"name": "Chamrajpet Bazar", "pincode": "560018"}, {"name": "Bagalgunte", "pincode": "560073"}, {"name": "Sri Mahaganapathi Nagar", "pincode": "560044"}, {"name": "Basaveswaranagar II Stage", "pincode": "560086"}, {"name": "Jalahalli West", "pincode": "560015"}, {"name": "Peenya Small Industries", "pincode": "560058"}, {"name": "HMT Staff Quarters", "pincode": "560031"}, {"name": "Mavalli", "pincode": "560004"}, {"name": "Jayanagar", "pincode": "560041"}, {"name": "Jayangar East", "pincode": "560069"}, {"name": "Veerasandra", "pincode": "561229"}, {"name": "Sivan Chetty Gardens", "pincode": "560042"}, {"name": "Bangalore Sub Fgn Post", "pincode": "560025"}, {"name": "Vyalikaval Extn", "pincode": "560003"}, {"name": "Maruthi Sevanagar", "pincode": "560033"}, {"name": "Benson Town", "pincode": "560006"}, {"name": "Training Command IAF", "pincode": "560094"}, {"name": "Aranya Bhavan", "pincode": "560080"}, {"name": "New Thippasandra", "pincode": "560075"}, {"name": "Jeevanahalli", "pincode": "560005"}, {"name": "Indiranagar Com. Complex", "pincode": "560038"}, {"name": "Domlur", "pincode": "560071"}, {"name": "Bangalore Air Port", "pincode": "560017"}, {"name": "Dharmaram College", "pincode": "560029"}, {"name": "Kothnur", "pincode": "560076"}, {"name": "Shanthinagar", "pincode": "560027"}, {"name": "Hosur Road", "pincode": "560030"}, {"name": "Austin Town", "pincode": "560047"}, {"name": "Narayan Pillai Street", "pincode": "560051"}, {"name": "KP West", "pincode": "560020"}, {"name": "Ramachandrapuram", "pincode": "560021"}, {"name": "Gayathrinagar", "pincode": "560055"}, {"name": "Chikkabettahalli", "pincode": "560097"}, {"name": "Govindapalya", "pincode": "560013"}, {"name": "Krishnarajapuram RS", "pincode": "560016"}, {"name": "Kalyanagar", "pincode": "560043"}, {"name": "Bhattarahalli", "pincode": "560049"}, {"name": "Gaviopuram Extension", "pincode": "560019"}, {"name": "Kanteeravanagar", "pincode": "560096"}, {"name": "Goraguntepalya", "pincode": "560022"}, {"name": "KG Road", "pincode": "560009"}, {"name": "Anandnagar", "pincode": "560024"}, {"name": "P&T Col Kavalbyrasandra", "pincode": "560032"}, {"name": "Devarjeevanahalli", "pincode": "560045"}, {"name": "Thanisandra", "pincode": "560077"}, {"name": "Amruthahalli", "pincode": "560092"}, {"name": "GKVK", "pincode": "560065"}, {"name": "Uttarahalli", "pincode": "560061"}, {"name": "Ashoknagar", "pincode": "560050"}, {"name": "Tyagrajnagar", "pincode": "560028"}, {"name": "Jayanagar West", "pincode": "560070"}, {"name": "Girinagar", "pincode": "560085"}, {"name": "Adugodi", "pincode": "560095"}, {"name": "Madivala", "pincode": "560102"}, {"name": "Bommanahalli", "pincode": "560068"}, {"name": "Kothanur", "pincode": "560062"}, {"name": "Agara", "pincode": "560034"}, {"name": "Whitefield", "pincode": "560066"}, {"name": "Varthur", "pincode": "560087"}, {"name": "Panathur", "pincode": "560103"}, {"name": "Doddakannalli", "pincode": "560035"}, {"name": "Mahadevapura", "pincode": "560048"}, {"name": "Bagalur", "pincode": "562149"}, {"name": "Hampinagar", "pincode": "560104"}, {"name": "Bapujinagar", "pincode": "560026"}, {"name": "Magadi Road", "pincode": "560023"}, {"name": "Rv Niketan", "pincode": "560059"}, {"name": "Kenchanahalli", "pincode": "560098"}, {"name": "Kengeri", "pincode": "560060"}, {"name": "Basaveshwaranagar", "pincode": "560079"}, {"name": "Konappana Agrahara", "pincode": "560100"}, {"name": "Bnagalore Viswavidalaya", "pincode": "560056"}, {"name": "Nagarbhavi Stage 4", "pincode": "560242"}, {"name": "Chandra Lay Out", "pincode": "560040"}, {"name": "Doddanekkundi", "pincode": "560037"}, {"name": "Nagarbhavi", "pincode": "560072"}, {"name": "Agram", "pincode": "560007"}, {"name": "Someswarapura", "pincode": "560008"}, {"name": "J P Nagar", "pincode": "560078"}, {"name": "JC Nagar", "pincode": "560046"}, {"name": "Nayandahalli", "pincode": "560039"}, {"name": "Avani Sringeri Mutt", "pincode": "560010"}, {"name": "Balepete", "pincode": "560053"}, {"name": "Seshadripuram", "pincode": "560001"}, {"name": "Jakkur", "pincode": "560064"}, {"name": "Lingarajapuram", "pincode": "560084"}, {"name": "Krishnarajapura", "pincode": "560036"}]